NORAD_CAT_ID,OBJECT_NAME,OBJECT_TYPE,EPOCH,MEAN_MOTION,ECCENTRICITY,INCLINATION,RA_OF_ASC_NODE,ARG_OF_PERICENTER,MEAN_ANOMALY,BSTAR,MEAN_MOTION_DOT,MEAN_MOTION_DDOT,TLE_LINE0,TLE_LINE1,TLE_LINE2,SEMIMAJOR_AXIS,PERIOD,APOGEE,PERIGEE,DECAYED
54090.0,STARLINK-5177,PAYLOAD,2022-12-17 22:00:00,15.31819803,0.0001252999999999,53.2168,222.0094,85.7781,171.9798,-0.038469,-0.01096442,0.0,0 STARLINK-5177,1 54090U 22136AR  22351.91667824 -.01096442  00000-0 -38469-1 0  9997,2 54090  53.2168 222.0094 0001253  85.7781 171.9798 15.31819803  1306,6848.52,94.006,471.24300000000005,469.527,0.0
54090.0,STARLINK-5177,PAYLOAD,2022-12-18 08:00:01,15.30832879,0.0001136,53.2174,220.0719,75.34,320.6838,-0.041376,-0.01139228,0.0,0 STARLINK-5177,1 54090U 22136AR  22352.33334491 -.01139228  00000-0 -41376-1 0  9996,2 54090  53.2174 220.0719 0001136  75.3400 320.6838 15.30832879  9705,6851.4630000000025,94.066,474.106,472.55,0.0
54090.0,STARLINK-5177,PAYLOAD,2022-12-18 14:00:01,15.30219599,0.000116,53.2174,218.9107,86.1184,248.1407,-0.041978,-0.01134342,0.0,0 STARLINK-5177,1 54090U 22136AR  22352.58334491 -.01134342  00000-0 -41978-1 0  9993,2 54090  53.2174 218.9107 0001160  86.1184 248.1407 15.30219599  1300,6853.294,94.104,475.954,474.364,0.0
54090.0,STARLINK-5177,PAYLOAD,2022-12-18 22:00:00,15.29409112,0.0001225,53.2173,217.3672,67.9653,303.081,-0.043259,-0.01139396,0.0,0 STARLINK-5177,1 54090U 22136AR  22352.91667824 -.01139396  00000-0 -43259-1 0  9997,2 54090  53.2173 217.3672 0001225  67.9653 303.0810 15.29409112  1308,6855.715,94.154,478.419,476.74,0.0
54090.0,STARLINK-5177,PAYLOAD,2022-12-19 08:00:01,15.28391028,0.0001379,53.2175,215.4372,68.6698,76.9893,-0.044559,-0.01137482,0.0,0 STARLINK-5177,1 54090U 22136AR  22353.33334491 -.01137482  00000-0 -44559-1 0  9993,2 54090  53.2175 215.4372 0001379  68.6698  76.9893 15.28391028  9853,6858.759,94.217,481.569,479.67800000000005,0.0
54090.0,STARLINK-5177,PAYLOAD,2022-12-19 12:00:00,15.27981018,0.0001136,53.2173,214.6657,75.6971,267.3804,-0.044915,-0.01132594,0.0,0 STARLINK-5177,1 54090U 22136AR  22353.50001157 -.01132594  00000-0 -44915-1 0  9997,2 54090  53.2173 214.6657 0001136  75.6971 267.3804 15.27981018  1304,6859.986,94.242,482.63,481.071,0.0
54090.0,STARLINK-5177,PAYLOAD,2022-12-19 22:00:00,15.26967449,0.0001409999999999,53.2173,212.7428,65.563,49.9848,-0.046589,-0.01138377,0.0,0 STARLINK-5177,1 54090U 22136AR  22353.91667824 -.01138377  00000-0 -46589-1 0  9995,2 54090  53.2173 212.7428 0001410  65.5630  49.9848 15.26967449  1307,6863.021,94.305,485.854,483.918,0.0
54090.0,STARLINK-5177,PAYLOAD,2022-12-20 14:00:01,15.25348566,0.0001486999999999,53.2169,209.6681,65.3522,114.97,-0.049448,-0.01164661,0.0,0 STARLINK-5177,1 54090U 22136AR  22354.58334491 -.01164661  00000-0 -49448-1 0  9992,2 54090  53.2169 209.6681 0001487  65.3522 114.9700 15.25348566  1302,6867.876,94.405,490.762,488.72,0.0
54090.0,STARLINK-5177,PAYLOAD,2022-12-21 08:00:01,15.23508484,0.0001152,53.2175,206.2194,92.9505,245.5768,-0.0516679999999999,-0.01152383,0.0,0 STARLINK-5177,1 54090U 22136AR  22355.33334491 -.01152383  00000-0 -51668-1 0  9991,2 54090  53.2175 206.2194 0001152  92.9505 245.5768 15.23508484 10161,6873.405,94.519,496.062,494.478,0.0
54090.0,STARLINK-5177,PAYLOAD,2022-12-21 14:00:01,15.22896283,0.0001336,53.2175,205.0714,96.1914,173.9698,-0.052406,-0.01148069,0.0,0 STARLINK-5177,1 54090U 22136AR  22355.58334491 -.01148069  00000-0 -52406-1 0  9995,2 54090  53.2175 205.0714 0001336  96.1914 173.9698 15.22896283  1308,6875.246999999999,94.557,498.03,496.193,0.0
54090.0,STARLINK-5177,PAYLOAD,2022-12-22 08:00:01,15.21065646,0.0001321,53.2175,201.6363,58.6067,3.1542,-0.055405,-0.01149547,0.0,0 STARLINK-5177,1 54090U 22136AR  22356.33334491 -.01149547  00000-0 -55405-1 0  9993,2 54090  53.2175 201.6363 0001321  58.6067   3.1542 15.21065646 10319,6880.762,94.67,503.536,501.718,0.0
54090.0,STARLINK-5177,PAYLOAD,2022-12-22 14:00:01,15.20453861,0.0001211,53.2176,200.4929,75.9072,275.2872,-0.056217,-0.01145864,0.0,0 STARLINK-5177,1 54090U 22136AR  22356.58334491 -.01145864  00000-0 -56217-1 0  9990,2 54090  53.2176 200.4929 0001211  75.9072 275.2872 15.20453861  1307,6882.608,94.709,505.306,503.639,0.0
54090.0,STARLINK-5177,PAYLOAD,2022-12-22 22:00:00,15.19642834,0.0001272,53.2174,198.9723,67.3889,308.8588,-0.057854,-0.01151111,0.0,0 STARLINK-5177,1 54090U 22136AR  22356.91667824 -.01151111  00000-0 -57854-1 0  9996,2 54090  53.2174 198.9723 0001272  67.3889 308.8588 15.19642834  1301,6885.056,94.759,507.797,506.045,0.0
54090.0,STARLINK-5177,PAYLOAD,2022-12-23 08:00:01,15.18631834,0.0001518,53.217,197.0711,57.1047,79.0845,-0.060041,-0.01159293,0.0,0 STARLINK-5177,1 54090U 22136AR  22357.33334491 -.01159293  00000-0 -60041-1 0  9995,2 54090  53.2170 197.0711 0001518  57.1047  79.0845 15.18631834 10467,6888.111999999999,94.822,511.022,508.931,0.0
54090.0,STARLINK-5177,PAYLOAD,2022-12-23 14:00:01,15.18019998,0.000143,53.2168,195.9318,58.738,4.6849,-0.060963,-0.01156587,0.0,0 STARLINK-5177,1 54090U 22136AR  22357.58334491 -.01156587  00000-0 -60963-1 0  9998,2 54090  53.2168 195.9318 0001430  58.7380   4.6849 15.18019998  1306,6889.962,94.86,512.813,510.842,0.0
54090.0,STARLINK-5177,PAYLOAD,2022-12-23 22:00:01,15.17204824,0.0001324,53.2171,194.4167,75.7202,9.8877,-0.062361,-0.01155618,0.0,0 STARLINK-5177,1 54090U 22136AR  22357.91668981 -.01155618  00000-0 -62361-1 0  9997,2 54090  53.2171 194.4167 0001324  75.7202   9.8877 15.17204824  1301,6892.43,94.911,515.2080000000002,513.382,0.0
54090.0,STARLINK-5177,PAYLOAD,2022-12-24 10:00:00,15.15977035,0.0001284999999999,53.2173,192.1429,72.4897,224.4083,-0.063919,-0.01144353,0.0,0 STARLINK-5177,1 54090U 22136AR  22358.41667824 -.01144353  00000-0 -63919-1 0  9992,2 54090  53.2173 192.1429 0001285  72.4897 224.4083 15.15977035 10638,6896.151,94.988,518.9019999999998,517.13,0.0
54090.0,STARLINK-5177,PAYLOAD,2022-12-24 14:00:01,15.15581905,0.0001549,53.2168,191.3872,60.1764,66.6765,-0.065662,-0.01160994,0.0,0 STARLINK-5177,1 54090U 22136AR  22358.58334491 -.01160994  00000-0 -65662-1 0  9997,2 54090  53.2168 191.3872 0001549  60.1764  66.6765 15.15581905  1309,6897.35,95.013,520.283,518.146,0.0
54090.0,STARLINK-5177,PAYLOAD,2022-12-24 22:00:00,15.14772179,0.0001501,53.217,189.8781,72.65100000000002,73.3868,-0.06755,-0.01166627,0.0,0 STARLINK-5177,1 54090U 22136AR  22358.91667824 -.01166627  00000-0 -67550-1 0  9990,2 54090  53.2170 189.8781 0001501  72.6510  73.3868 15.14772179  1301,6899.807,95.064,522.7080000000002,520.637,0.0
54090.0,STARLINK-5177,PAYLOAD,2022-12-25 08:00:01,15.13738911,0.0001363,53.2174,187.9898,71.4878,187.169,-0.068065,-0.01143467,0.0,0 STARLINK-5177,1 54090U 22136AR  22359.33334491 -.01143467  00000-0 -68065-1 0  9997,2 54090  53.2174 187.9898 0001363  71.4878 187.1690 15.13738911 10776,6902.946999999999,95.129,525.753,523.871,0.0
54090.0,STARLINK-5177,PAYLOAD,2022-12-25 14:00:01,15.1314836,0.0001641,53.2169,186.8598,58.5852,122.8946,-0.071036,-0.01171312,0.0,0 STARLINK-5177,1 54090U 22136AR  22359.58334491 -.01171312  00000-0 -71036-1 0  9996,2 54090  53.2169 186.8598 0001641  58.5852 122.8946 15.13148360  1304,6904.743,95.166,527.741,525.475,0.0
54090.0,STARLINK-5177,PAYLOAD,2022-12-26 00:00:00,15.12109223,0.000132,53.2171,184.9798,80.5781,211.0765,-0.071004,-0.01139648,0.0,0 STARLINK-5177,1 54090U 22136AR  22360.00001157 -.01139648  00000-0 -71004-1 0  9996,2 54090  53.2171 184.9798 0001320  80.5781 211.0765 15.12109223  1302,6907.906,95.231,530.683,528.859,0.0
54090.0,STARLINK-5177,PAYLOAD,2022-12-26 06:00:00,15.11511451,0.0001524,53.2171,183.8511,65.7979,147.218,-0.073509,-0.01158698,0.0,0 STARLINK-5177,1 54090U 22136AR  22360.25001157 -.01158698  00000-0 -73509-1 0  9991,2 54090  53.2171 183.8511 0001524  65.7979 147.2180 15.11511451 10910,6909.727,95.269,532.645,530.539,0.0
54090.0,STARLINK-5177,PAYLOAD,2022-12-26 14:00:01,15.1069916,0.0001509,53.217,182.3494,68.2107,159.1029,-0.075273,-0.0115983,0.0,0 STARLINK-5177,1 54090U 22136AR  22360.58334491 -.01159830  00000-0 -75273-1 0  9996,2 54090  53.2170 182.3494 0001509  68.2107 159.1029 15.10699160  1307,6912.204000000002,95.32,535.112,533.025,0.0
54090.0,STARLINK-5177,PAYLOAD,2022-12-26 22:00:00,15.09799334,0.0001553,53.2172,180.8514,63.9725,176.6777,-0.061989,-0.00935649,0.0,0 STARLINK-5177,1 54090U 22136AR  22360.91667824 -.00935649  00000-0 -61989-1 0  9990,2 54090  53.2172 180.8514 0001553  63.9725 176.6777 15.09799334  1308,6914.95,95.377,537.889,535.741,0.0
54090.0,STARLINK-5177,PAYLOAD,2022-12-27 08:00:01,15.08876013,0.0001522,53.2173,178.977,66.6361,279.4012,-0.0040648,-0.00064464,0.0,0 STARLINK-5177,1 54090U 22136AR  22361.33335648 -.00064464  00000-0 -40648-2 0  9991,2 54090  53.2173 178.9770 0001522  66.6361 279.4012 15.08876013 11071,6917.77,95.435,540.688,538.582,0.0
54090.0,STARLINK-5177,PAYLOAD,2022-12-27 14:00:01,15.08855858,8.79e-05,53.2146,177.8583,65.1028,199.4434,-0.0005127,-8.441e-05,0.0,0 STARLINK-5177,1 54090U 22136AR  22361.58334491 -.00008441  00000-0 -51270-3 0  9990,2 54090  53.2146 177.8583 0000879  65.1028 199.4434 15.08855858  1307,6917.831999999999,95.437,540.305,539.089,0.0
54090.0,STARLINK-5177,PAYLOAD,2022-12-27 16:00:01,15.08860671,9.16e-05,53.2146,177.4847,59.6307,297.8798,-0.0014029,-0.00022558,0.0,0 STARLINK-5177,1 54090U 22136AR  22361.66668981 -.00022558  00000-0 -14029-2 0  9998,2 54090  53.2146 177.4847 0000916  59.6307 297.8798 15.08860671 11122,6917.816999999999,95.436,540.316,539.049,0.0
54090.0,STARLINK-5177,PAYLOAD,2022-12-27 22:00:00,15.08828247,0.0001046,53.2144,176.3634,52.6769,223.4828,0.002508,0.0003984,0.0,0 STARLINK-5177,1 54090U 22136AR  22361.91667824  .00039840  00000-0  25080-2 0  9990,2 54090  53.2144 176.3634 0001046  52.6769 223.4828 15.08828247  1303,6917.916,95.438,540.505,539.058,0.0
